[
  {
    "OBJECT_NAME": "LEGION 3",
    "OBJECT_ID": "2024-146A",
    "EPOCH": "2025-05-10T12:55:02.323776",
    "MEAN_MOTION": 15.16123353,
    "ECCENTRICITY": 0.0024933,
    "INCLINATION": 45.0033,
    "RA_OF_ASC_NODE": 29.3658,
    "ARG_OF_PERICENTER": 69.6841,
    "MEAN_ANOMALY": 290.6714,
    "EPHEMERIS_TYPE": 0,
    "CLASSIFICATION_TYPE": "U",
    "NORAD_CAT_ID": 60452,
    "ELEMENT_SET_NO": 999,
    "REV_AT_EPOCH": 4092,
    "BSTAR": 0.00031335,
    "MEAN_MOTION_DOT": 5.922e-05,
    "MEAN_MOTION_DDOT": 0
  },
  {
    "OBJECT_NAME": "LEGION 4",
    "OBJECT_ID": "2024-146B",
    "EPOCH": "2025-05-10T11:22:36.120288",
    "MEAN_MOTION": 15.1630149,
    "ECCENTRICITY": 0.0005107,
    "INCLINATION": 45.0363,
    "RA_OF_ASC_NODE": 120.7275,
    "ARG_OF_PERICENTER": 99.7145,
    "MEAN_ANOMALY": 260.4311,
    "EPHEMERIS_TYPE": 0,
    "CLASSIFICATION_TYPE": "U",
    "NORAD_CAT_ID": 60453,
    "ELEMENT_SET_NO": 999,
    "REV_AT_EPOCH": 3976,
    "BSTAR": 0.00025503,
    "MEAN_MOTION_DOT": 4.763e-05,
    "MEAN_MOTION_DDOT": 0
  },
  {
    "OBJECT_NAME": "SENTINEL-2C",
    "OBJECT_ID": "2024-157A",
    "EPOCH": "2025-05-10T10:41:30.621120",
    "MEAN_MOTION": 14.3082537,
    "ECCENTRICITY": 0.0001216,
    "INCLINATION": 98.5627,
    "RA_OF_ASC_NODE": 206.0859,
    "ARG_OF_PERICENTER": 99.2583,
    "MEAN_ANOMALY": 260.8737,
    "EPHEMERIS_TYPE": 0,
    "CLASSIFICATION_TYPE": "U",
    "NORAD_CAT_ID": 60989,
    "ELEMENT_SET_NO": 999,
    "REV_AT_EPOCH": 3539,
    "BSTAR": 8.4512e-05,
    "MEAN_MOTION_DOT": 1.78e-06,
    "MEAN_MOTION_DDOT": 0
  },
  {
    "OBJECT_NAME": "BIOMASS",
    "OBJECT_ID": "2025-090A",
    "EPOCH": "2025-05-10T13:31:58.310976",
    "MEAN_MOTION": 14.69118746,
    "ECCENTRICITY": 0.0001359,
    "INCLINATION": 98.0724,
    "RA_OF_ASC_NODE": 318.6137,
    "ARG_OF_PERICENTER": 90.3152,
    "MEAN_ANOMALY": 269.8209,
    "EPHEMERIS_TYPE": 0,
    "CLASSIFICATION_TYPE": "U",
    "NORAD_CAT_ID": 63772,
    "ELEMENT_SET_NO": 999,
    "REV_AT_EPOCH": 163,
    "BSTAR": 0.00031197,
    "MEAN_MOTION_DOT": 1.785e-05,
    "MEAN_MOTION_DDOT": 0
  }
]