LEGION 3                
1 60452U 24146A   25130.53822134  .00005922  00000+0  31335-3 0  9998
2 60452  45.0033  29.3658 0024933  69.6841 290.6714 15.16123353 40926
LEGION 4                
1 60453U 24146B   25130.47402917  .00004763  00000+0  25503-3 0  9997
2 60453  45.0363 120.7275 0005107  99.7145 260.4311 15.16301490 39765
SENTINEL-2C             
1 60989U 24157A   25130.44549330  .00000178  00000+0  84512-4 0  9993
2 60989  98.5627 206.0859 0001216  99.2583 260.8737 14.30825370 35393
BIOMASS                 
1 63772U 25090A   25130.56386934  .00001785  00000+0  31197-3 0  9990
2 63772  98.0724 318.6137 0001359  90.3152 269.8209 14.69118746  1637
